SatCatId,ObjectName,LaunchYear,OrbitalPeriod,LaunchMass,StatusCode,Inclination,Status,UcsData,OrbitClassEstimated,LaunchSiteCountry,Owner,UseType,Purpose,LaunchVehicleClass,TLE1,TLE2,MeanMotion,Eccentricity,OrbitClass
59015,STARLINK-31521,2024,94.11,-1.0,+,53.16,Active,0,LEO,USA,USA,Unknown,Unknown,Unknown,1 59015U 24036T   24283.33907628 -.00008117  00000+0 -26256-3 0  9994,2 59015  53.1596 316.8033 0000853  94.3892 265.7206 15.30158717 36269,15.30158717,8.53e-05,LEO
59016,STARLINK-31526,2024,93.53,-1.0,+,53.16,Active,0,LEO,USA,USA,Unknown,Unknown,Unknown,1 59016U 24036U   24283.42561623 -.00003176  00000+0 -69509-4 0  9995,2 59016  53.1611 296.7005 0001318 106.4828 253.6322 15.39594370 36559,15.3959437,0.0001318,LEO
59017,STARLINK-31406,2024,94.11,-1.0,+,53.16,Active,0,LEO,USA,USA,Unknown,Unknown,Unknown,1 59017U 24036V   24283.33697536 -.00003398  00000+0 -10272-3 0  9997,2 59017  53.1615 316.7901 0001259 106.0674 254.0466 15.30179296 36260,15.30179296,0.0001259,LEO
59018,STARLINK-31527,2024,94.11,-1.0,+,53.16,Active,0,LEO,USA,USA,Unknown,Unknown,Unknown,1 59018U 24036W   24283.39489593 -.00006634  00000+0 -21227-3 0  9994,2 59018  53.1588 316.4464 0001338  80.0676 280.0476 15.30167848 36273,15.30167848,0.0001338,LEO
59019,STARLINK-31436,2024,94.11,-1.0,+,53.16,Active,0,LEO,USA,USA,Unknown,Unknown,Unknown,1 59019U 24036X   24283.41494361  .00001933  00000+0  77440-4 0  9991,2 59019  53.1620 316.5648 0001623 101.6092 258.5091 15.30173731 36276,15.30173731,0.0001623,LEO
59020,TJS-11,2024,1436.11,-1.0,+,5.14,Active,0,GSO,PRC,China,Unknown,Unknown,Unknown,1 59020U 24037A   24283.42611913 -.00000363  00000+0  00000+0 0  9999,2 59020   5.1385 321.7692 0005558 262.4876  67.9950  1.00270791  2407,1.00270791,0.0005558,GSO
59023,STARLINK-30996,2024,94.37,-1.0,+,43.0,Active,0,LEO,USA,USA,Unknown,Unknown,Unknown,1 59023U 24038A   24283.42245847 -.00008387  00000+0 -31150-3 0  9991,2 59023  43.0013  58.1538 0001320 264.2423  95.8278 15.25873497 37225,15.25873497,0.000132,LEO
59024,STARLINK-31006,2024,93.46,-1.0,+,43.0,Active,0,LEO,USA,USA,Unknown,Unknown,Unknown,1 59024U 24038B   24283.57444037  .00004330  00000+0  11090-3 0  9993,2 59024  43.0035  29.0103 0001282 249.5486 110.5233 15.40687878 36203,15.40687878,0.0001282,LEO
59025,STARLINK-31178,2024,94.37,-1.0,+,43.0,Active,0,LEO,USA,USA,Unknown,Unknown,Unknown,1 59025U 24038C   24283.42019394 -.00009884  00000+0 -36896-3 0  9994,2 59025  43.0013  58.1330 0001154 290.3960  69.6767 15.25872196 35740,15.25872196,0.0001154,LEO
59026,STARLINK-31227,2024,94.37,-1.0,+,43.0,Active,0,LEO,USA,USA,Unknown,Unknown,Unknown,1 59026U 24038D   24283.41792574 -.00031013  00000+0 -11828-2 0  9998,2 59026  42.9988  58.1186 0000633 210.1089 149.9725 15.25853525 35855,15.25853525,6.33e-05,LEO
59027,STARLINK-30863,2024,94.37,-1.0,+,43.0,Active,0,LEO,USA,USA,Unknown,Unknown,Unknown,1 59027U 24038E   24283.41566280 -.00005798  00000+0 -21212-3 0  9992,2 59027  42.9975  58.1018 0000304 103.4914 256.5971 15.25892539 35746,15.25892539,3.04e-05,LEO
59028,STARLINK-31206,2024,93.47,-1.0,+,43.0,Active,0,LEO,USA,USA,Unknown,Unknown,Unknown,1 59028U 24038F   24283.56493234 -.00008597  00000+0 -19913-3 0  9992,2 59028  42.9996  15.6678 0001401 271.4775  88.5921 15.40646911 36376,15.40646911,0.0001401,LEO
59029,STARLINK-31224,2024,94.37,-1.0,+,43.0,Active,0,LEO,USA,USA,Unknown,Unknown,Unknown,1 59029U 24038G   24283.41341862 -.00001705  00000+0 -55388-4 0  9997,2 59029  43.0022  58.0831 0001216 264.0196  96.0516 15.25884599 35855,15.25884599,0.0001216,LEO
59030,STARLINK-31186,2024,94.37,-1.0,+,43.0,Active,0,LEO,USA,USA,Unknown,Unknown,Unknown,1 59030U 24038H   24283.41112723 -.00002330  00000+0 -79323-4 0  9991,2 59030  42.9981  58.0696 0000463 277.0435  83.0363 15.25893479 35854,15.25893479,4.63e-05,LEO
59031,STARLINK-31211,2024,94.37,-1.0,+,43.0,Active,0,LEO,USA,USA,Unknown,Unknown,Unknown,1 59031U 24038J   24283.53979330 -.00007905  00000+0 -29294-3 0  9994,2 59031  43.0018  57.3161 0000494 254.5899 105.4898 15.25883623 35767,15.25883623,4.94e-05,LEO
59032,STARLINK-30862,2024,94.37,-1.0,+,43.0,Active,0,LEO,USA,USA,Unknown,Unknown,Unknown,1 59032U 24038K   24283.44039626 -.00005697  00000+0 -20821-3 0  9993,2 59032  43.0000  57.4402 0000956 210.3522 149.7274 15.25893407 35753,15.25893407,9.56e-05,LEO
59033,STARLINK-31210,2024,94.37,-1.0,+,43.0,Active,0,LEO,USA,USA,Unknown,Unknown,Unknown,1 59033U 24038L   24283.43815477 -.00003467  00000+0 -12285-3 0  9997,2 59033  43.0011  57.4198 0000649 260.3231  99.7546 15.25888568 35926,15.25888568,6.49e-05,LEO
59034,STARLINK-31231,2024,94.37,-1.0,+,43.0,Active,0,LEO,USA,USA,Unknown,Unknown,Unknown,1 59034U 24038M   24283.43362150 -.00012049  00000+0 -45208-3 0  9990,2 59034  42.9971  57.3770 0000792 232.9831 127.0948 15.25871532 35750,15.25871532,7.92e-05,LEO
59035,STARLINK-31207,2024,94.37,-1.0,+,43.0,Active,0,LEO,USA,USA,Unknown,Unknown,Unknown,1 59035U 24038N   24283.43133360 -.00006153  00000+0 -22564-3 0  9999,2 59035  42.9981  57.3610 0000723 222.3312 137.7484 15.25905130 35920,15.2590513,7.23e-05,LEO
59036,STARLINK-31217,2024,93.47,-1.0,+,43.0,Active,0,LEO,USA,USA,Unknown,Unknown,Unknown,1 59036U 24038P   24283.56549661 -.00010142  00000+0 -23628-3 0  9994,2 59036  43.0029  28.9669 0001780 261.4916  98.5739 15.40644308 36261,15.40644308,0.000178,LEO
59037,STARLINK-31208,2024,94.37,-1.0,+,43.0,Active,0,LEO,USA,USA,Unknown,Unknown,Unknown,1 59037U 24038Q   24283.39967939 -.00006637  00000+0 -24427-3 0  9990,2 59037  42.9964  57.0966 0000303 201.6919 158.3919 15.25889137 35921,15.25889137,3.03e-05,LEO
59038,STARLINK-31235,2024,94.37,-1.0,+,43.0,Active,0,LEO,USA,USA,Unknown,Unknown,Unknown,1 59038U 24038R   24283.42909874 -.00008139  00000+0 -30189-3 0  9990,2 59038  43.0012  57.3413 0001035 264.8871  95.1861 15.25883641 35860,15.25883641,0.0001035,LEO
59039,STARLINK-31220,2024,94.37,-1.0,+,43.0,Active,0,LEO,USA,USA,Unknown,Unknown,Unknown,1 59039U 24038S   24283.39530135 -.00001359  00000+0 -42160-4 0  9997,2 59039  43.0011  57.9590 0000993 270.2248  89.8490 15.25897548 35851,15.25897548,9.93e-05,LEO
59040,STARLINK-31225,2024,94.37,-1.0,+,43.0,Active,0,LEO,USA,USA,Unknown,Unknown,Unknown,1 59040U 24038T   24283.40619549 -.00006477  00000+0 -23819-3 0  9993,2 59040  42.9995  55.4011 0001090 277.1025  82.9702 15.25883976 35772,15.25883976,0.000109,LEO
59041,STARLINK-31240,2024,94.37,-1.0,+,43.0,Active,0,LEO,USA,USA,Unknown,Unknown,Unknown,1 59041U 24038U   24283.38850522 -.00020069  00000+0 -75945-3 0  9999,2 59041  43.0009  57.9128 0001570 221.5377 138.5355 15.25909207 35850,15.25909207,0.000157,LEO
59042,STARLINK-31202,2024,94.37,-1.0,+,43.0,Active,0,LEO,USA,USA,Unknown,Unknown,Unknown,1 59042U 24038V   24283.37027434 -.00003704  00000+0 -13186-3 0  9993,2 59042  42.9975  56.9106 0001741 186.5405 173.5424 15.25899123 35927,15.25899123,0.0001741,LEO
59043,STARLINK-31234,2024,94.37,-1.0,+,43.0,Active,0,LEO,USA,USA,Unknown,Unknown,Unknown,1 59043U 24038W   24283.44719874 -.00001603  00000+0 -51487-4 0  9991,2 59043  42.9996  57.4926 0001631 265.0979  94.9686 15.25891552 35759,15.25891552,0.0001631,LEO
59044,STARLINK-31153,2024,94.37,-1.0,+,43.0,Active,0,LEO,USA,USA,Unknown,Unknown,Unknown,1 59044U 24038X   24283.42457085 -.00003515  00000+0 -12464-3 0  9998,2 59044  42.9986  57.2963 0000541 120.1898 239.9007 15.25899579 35753,15.25899579,5.41e-05,LEO
59045,STARLINK-31241,2024,94.37,-1.0,+,43.0,Active,0,LEO,USA,USA,Unknown,Unknown,Unknown,1 59045U 24038Y   24283.37947320 -.00000945  00000+0 -26309-4 0  9997,2 59045  42.9992  57.8418 0000835 259.3353 100.7404 15.25902159 35912,15.25902159,8.35e-05,LEO
59046,STARLINK-31205,2024,94.37,-1.0,+,43.0,Active,0,LEO,USA,USA,Unknown,Unknown,Unknown,1 59046U 24038Z   24283.44270379 -.00008398  00000+0 -31173-3 0  9993,2 59046  43.0014  57.4602 0000995 296.5227  63.5522 15.25892072 35864,15.25892072,9.95e-05,LEO
59051,METEOR-M2 4,2024,101.25,-1.0,+,98.61,Active,0,LEO,Russia,Russia/USSR,Unknown,Unknown,Unknown,1 59051U 24039A   24283.45495864  .00000342  00000+0  17317-3 0  9992,2 59051  98.6129 242.6098 0007589 145.1920 214.9756 14.22280042 31732,14.22280042,0.0007589,LEO
59052,SITRO-AIS 29,2024,93.65,-1.0,+,97.4,Active,0,LEO,Russia,Russia/USSR,Unknown,Unknown,Unknown,1 59052U 24039B   24283.54794558  .00060578  00000+0  16245-2 0  9990,2 59052  97.4027 245.3414 0016218 153.3190 206.8893 15.37630216 34103,15.37630216,0.0016218,LEO
59053,SITRO-AIS 30,2024,93.67,-1.0,+,97.4,Active,0,LEO,Russia,Russia/USSR,Unknown,Unknown,Unknown,1 59053U 24039C   24283.55784684  .00060036  00000+0  16244-2 0  9999,2 59053  97.4027 245.3224 0016453 154.5632 205.6426 15.37352243 34096,15.37352243,0.0016453,LEO
59054,SITRO-AIS 31,2024,93.65,-1.0,+,97.4,Active,0,LEO,Russia,Russia/USSR,Unknown,Unknown,Unknown,1 59054U 24039D   24283.53734542  .00061512  00000+0  16503-2 0  9994,2 59054  97.4024 245.3508 0016106 154.4244 205.7800 15.37613898 34118,15.37613898,0.0016106,LEO
59055,SITRO-AIS 33,2024,93.64,-1.0,+,97.4,Active,0,LEO,Russia,Russia/USSR,Unknown,Unknown,Unknown,1 59055U 24039E   24283.45498448  .00087125  00000+0  23212-2 0  9991,2 59055  97.4030 245.3183 0015759 154.9446 205.2567 15.37722302 34090,15.37722302,0.0015759,LEO
59056,SITRO-AIS 35,2024,93.64,-1.0,+,97.4,Active,0,LEO,Russia,Russia/USSR,Unknown,Unknown,Unknown,1 59056U 24039F   24283.38495975  .00093989  00000+0  25018-2 0  9997,2 59056  97.4030 245.2551 0015593 155.0535 205.1467 15.37723660 34081,15.3772366,0.0015593,LEO
59057,SITRO-AIS 32,2024,93.66,-1.0,+,97.4,Active,0,LEO,Russia,Russia/USSR,Unknown,Unknown,Unknown,1 59057U 24039G   24283.40233573  .00082959  00000+0  22270-2 0  9997,2 59057  97.4032 245.2356 0015840 155.5328 204.6672 15.37504421 34081,15.37504421,0.001584,LEO
59058,SITRO-AIS 34,2024,93.64,-1.0,+,97.4,Active,0,LEO,Russia,Russia/USSR,Unknown,Unknown,Unknown,1 59058U 24039H   24283.39010732  .00089612  00000+0  23855-2 0  9999,2 59058  97.4030 245.2542 0015589 154.9641 205.2363 15.37739734 34089,15.37739734,0.0015589,LEO
